{"type": "FeatureCollection", "features": [ {"type": "Feature", "properties": {"norad_id": 35287, "name": "COSMOS 2251 DEB", "group": "cosmos-2251-debris", "lat": 1.1226987045131274, "lon": -79.6471086800504, "alt_km": 761.0397849755609, "timestamp": "2025-12-10T14:53:37.483774+00:00", "meta": {"OBJECT_NAME": "COSMOS 2251 DEB", "OBJECT_ID": "1993-036AJR", "EPOCH": "2025-12-08T06:45:42.279840", "MEAN_MOTION": 14.36370501, "ECCENTRICITY": 0.00173563, "INCLINATION": 74.0304, "RA_OF_ASC_NODE": 284.3273, "ARG_OF_PERICENTER": 22.2122, "MEAN_ANOMALY": 130.0196, "EPHEMERIS_TYPE": 0, "CLASSIFICATION_TYPE": "U", "NORAD_CAT_ID": 35287, "ELEMENT_SET_NO": 999, "REV_AT_EPOCH": 86828, "BSTAR": 0.00029165774, "MEAN_MOTION_DOT": 8.29e-06, "MEAN_MOTION_DDOT": 0}, "tle": {"line1": "1 35287U 93036AJR 25342.28173935  .00000829  00000+0  29166-3 0  9995", "line2": "2 35287  74.0304 284.3273 0017356  22.2122 130.0196 14.36370501868289"}}, "geometry": {"type": "Point", "coordinates": [-79.6471086800504, 1.1226987045131274]}}, {"type": "Feature", "properties": {"norad_id": 35288, "name": "COSMOS 2251 DEB", "group": "cosmos-2251-debris", "lat": -64.17040551492775, "lon": -17.21526610263242, "alt_km": 660.442066123258, "timestamp": "2025-12-10T14:53:37.483783+00:00", "meta": {"OBJECT_NAME": "COSMOS 2251 DEB", "OBJECT_ID": "1993-036AJS", "EPOCH": "2025-12-08T18:58:17.923872", "MEAN_MOTION": 14.65390759, "ECCENTRICITY": 0.00395539, "INCLINATION": 73.9507, "RA_OF_ASC_NODE": 22.8152, "ARG_OF_PERICENTER": 256.8588, "MEAN_ANOMALY": 102.8165, "EPHEMERIS_TYPE": 0, "CLASSIFICATION_TYPE": "U", "NORAD_CAT_ID": 35288, "ELEMENT_SET_NO": 999, "REV_AT_EPOCH": 87820, "BSTAR": 0.0016009913, "MEAN_MOTION_DOT": 8.734e-05, "MEAN_MOTION_DDOT": 0}, "tle": {"line1": "1 35288U 93036AJS 25342.79048523  .00008734  00000+0  16010-2 0  9992", "line2": "2 35288  73.9507  22.8152 0039553 256.8588 102.8165 14.65390759878203"}}, "geometry": {"type": "Point", "coordinates": [-17.21526610263242, -64.17040551492775]}}, {"type": "Feature", "properties": {"norad_id": 35290, "name": "COSMOS 2251 DEB", "group": "cosmos-2251-debris", "lat": 73.00733073001705, "lon": 173.79202221269338, "alt_km": 621.5558072391923, "timestamp": "2025-12-10T14:53:37.483792+00:00", "meta": {"OBJECT_NAME": "COSMOS 2251 DEB", "OBJECT_ID": "1993-036AJU", "EPOCH": "2025-12-09T15:45:15.254784", "MEAN_MOTION": 14.80228211, "ECCENTRICITY": 0.00025765, "INCLINATION": 74.005, "RA_OF_ASC_NODE": 65.5213, "ARG_OF_PERICENTER": 202.4691, "MEAN_ANOMALY": 157.6373, "EPHEMERIS_TYPE": 0, "CLASSIFICATION_TYPE": "U", "NORAD_CAT_ID": 35290, "ELEMENT_SET_NO": 999, "REV_AT_EPOCH": 87912, "BSTAR": 0.0031261297, "MEAN_MOTION_DOT": 0.00023834, "MEAN_MOTION_DDOT": 0}, "tle": {"line1": "1 35290U 93036AJU 25343.65642656  .00023834  00000+0  31261-2 0  9991", "line2": "2 35290  74.0050  65.5213 0002576 202.4691 157.6373 14.80228211879121"}}, "geometry": {"type": "Point", "coordinates": [173.79202221269338, 73.00733073001705]}}, {"type": "Feature", "properties": {"norad_id": 35432, "name": "COSMOS 2251 DEB", "group": "cosmos-2251-debris", "lat": 4.040628723445768, "lon": 21.17535463895804, "alt_km": 493.34487547647404, "timestamp": "2025-12-10T14:53:37.483801+00:00", "meta": {"OBJECT_NAME": "COSMOS 2251 DEB", "OBJECT_ID": "1993-036AKA", "EPOCH": "2025-12-10T02:15:21.827232", "MEAN_MOTION": 15.22051238, "ECCENTRICITY": 0.00123831, "INCLINATION": 74.0231, "RA_OF_ASC_NODE": 21.1234, "ARG_OF_PERICENTER": 344.9904, "MEAN_ANOMALY": 15.0925, "EPHEMERIS_TYPE": 0, "CLASSIFICATION_TYPE": "U", "NORAD_CAT_ID": 35432, "ELEMENT_SET_NO": 999, "REV_AT_EPOCH": 87463, "BSTAR": 0.0070593041, "MEAN_MOTION_DOT": 0.00165457, "MEAN_MOTION_DDOT": 0}, "tle": {"line1": "1 35432U 93036AKA 25344.09400263  .00165457  00000+0  70593-2 0  9993", "line2": "2 35432  74.0231  21.1234 0012383 344.9904  15.0925 15.22051238874638"}}, "geometry": {"type": "Point", "coordinates": [21.17535463895804, 4.040628723445768]}}, {"type": "Feature", "properties": {"norad_id": 35433, "name": "COSMOS 2251 DEB", "group": "cosmos-2251-debris", "lat": 45.529623172578354, "lon": 145.375989922671, "alt_km": 772.7030031960012, "timestamp": "2025-12-10T14:53:37.483810+00:00", "meta": {"OBJECT_NAME": "COSMOS 2251 DEB", "OBJECT_ID": "1993-036AKB", "EPOCH": "2025-12-05T19:38:16.327392", "MEAN_MOTION": 14.34730306, "ECCENTRICITY": 0.00254596, "INCLINATION": 74.0335, "RA_OF_ASC_NODE": 351.128, "ARG_OF_PERICENTER": 48.4343, "MEAN_ANOMALY": 128.9694, "EPHEMERIS_TYPE": 0, "CLASSIFICATION_TYPE": "U", "NORAD_CAT_ID": 35433, "ELEMENT_SET_NO": 999, "REV_AT_EPOCH": 86481, "BSTAR": 0.00044039966, "MEAN_MOTION_DOT": 1.226e-05, "MEAN_MOTION_DDOT": 0}, "tle": {"line1": "1 35433U 93036AKB 25339.81824453  .00001226  00000+0  44040-3 0  9991", "line2": "2 35433  74.0335 351.1280 0025459  48.4343 128.9694 14.34730306864810"}}, "geometry": {"type": "Point", "coordinates": [145.375989922671, 45.529623172578354]}}, {"type": "Feature", "properties": {"norad_id": 35434, "name": "COSMOS 2251 DEB", "group": "cosmos-2251-debris", "lat": 60.04780747850568, "lon": 7.6744968129271225, "alt_km": 862.4539029078378, "timestamp": "2025-12-10T14:53:37.483818+00:00", "meta": {"OBJECT_NAME": "COSMOS 2251 DEB", "OBJECT_ID": "1993-036AKC", "EPOCH": "2025-12-10T00:52:32.487168", "MEAN_MOTION": 14.25675251, "ECCENTRICITY": 0.00875414, "INCLINATION": 74.0403, "RA_OF_ASC_NODE": 218.5045, "ARG_OF_PERICENTER": 289.7941, "MEAN_ANOMALY": 69.3783, "EPHEMERIS_TYPE": 0, "CLASSIFICATION_TYPE": "U", "NORAD_CAT_ID": 35434, "ELEMENT_SET_NO": 999, "REV_AT_EPOCH": 86079, "BSTAR": 0.00086488771, "MEAN_MOTION_DOT": 2.109e-05, "MEAN_MOTION_DDOT": 0}, "tle": {"line1": "1 35434U 93036AKC 25344.03648712  .00002109  00000+0  86489-3 0  9998", "line2": "2 35434  74.0403 218.5045 0087541 289.7941  69.3783 14.25675251860793"}}, "geometry": {"type": "Point", "coordinates": [7.6744968129271225, 60.04780747850568]}}, {"type": "Feature", "properties": {"norad_id": 35435, "name": "COSMOS 2251 DEB", "group": "cosmos-2251-debris", "lat": -73.67919074826945, "lon": 6.562199141221991, "alt_km": 638.9440373672232, "timestamp": "2025-12-10T14:53:37.483827+00:00", "meta": {"OBJECT_NAME": "COSMOS 2251 DEB", "OBJECT_ID": "1993-036AKD", "EPOCH": "2025-12-09T15:01:26.253984", "MEAN_MOTION": 14.78296996, "ECCENTRICITY": 0.0008431, "INCLINATION": 74.0096, "RA_OF_ASC_NODE": 110.1934, "ARG_OF_PERICENTER": 204.3804, "MEAN_ANOMALY": 171.3838, "EPHEMERIS_TYPE": 0, "CLASSIFICATION_TYPE": "U", "NORAD_CAT_ID": 35435, "ELEMENT_SET_NO": 999, "REV_AT_EPOCH": 87493, "BSTAR": 0.0036525, "MEAN_MOTION_DOT": 0.00026633, "MEAN_MOTION_DDOT": 0}, "tle": {"line1": "1 35435U 93036AKD 25343.62599831  .00026633  00000+0  36525-2 0  9993", "line2": "2 35435  74.0096 110.1934 0008431 204.3804 171.3838 14.78296996874937"}}, "geometry": {"type": "Point", "coordinates": [6.562199141221991, -73.67919074826945]}}, {"type": "Feature", "properties": {"norad_id": 35439, "name": "COSMOS 2251 DEB", "group": "cosmos-2251-debris", "lat": 48.899086590165936, "lon": -60.80572660133725, "alt_km": 1090.5121735706543, "timestamp": "2025-12-10T14:53:37.483836+00:00", "meta": {"OBJECT_NAME": "COSMOS 2251 DEB", "OBJECT_ID": "1993-036AKH", "EPOCH": "2025-12-09T17:39:24.182784", "MEAN_MOTION": 13.92788449, "ECCENTRICITY": 0.02417896, "INCLINATION": 74.0194, "RA_OF_ASC_NODE": 139.886, "ARG_OF_PERICENTER": 309.8567, "MEAN_ANOMALY": 63.37, "EPHEMERIS_TYPE": 0, "CLASSIFICATION_TYPE": "U", "NORAD_CAT_ID": 35439, "ELEMENT_SET_NO": 999, "REV_AT_EPOCH": 83919, "BSTAR": 0.0021895802, "MEAN_MOTION_DOT": 3.579e-05, "MEAN_MOTION_DDOT": 0}, "tle": {"line1": "1 35439U 93036AKH 25343.73569656  .00003579  00000+0  21896-2 0  9990", "line2": "2 35439  74.0194 139.8860 0241789 309.8567  63.3700 13.92788449839199"}}, "geometry": {"type": "Point", "coordinates": [-60.80572660133725, 48.899086590165936]}}, {"type": "Feature", "properties": {"norad_id": 35440, "name": "COSMOS 2251 DEB", "group": "cosmos-2251-debris", "lat": -19.479520189879494, "lon": -154.08537495520375, "alt_km": 622.2995182972745, "timestamp": "2025-12-10T14:53:37.483845+00:00", "meta": {"OBJECT_NAME": "COSMOS 2251 DEB", "OBJECT_ID": "1993-036AKJ", "EPOCH": "2025-12-08T09:02:26.366784", "MEAN_MOTION": 14.68778885, "ECCENTRICITY": 0.0069124, "INCLINATION": 74.0147, "RA_OF_ASC_NODE": 216.0804, "ARG_OF_PERICENTER": 357.9704, "MEAN_ANOMALY": 2.1175, "EPHEMERIS_TYPE": 0, "CLASSIFICATION_TYPE": "U", "NORAD_CAT_ID": 35440, "ELEMENT_SET_NO": 999, "REV_AT_EPOCH": 68701, "BSTAR": 0.00070103994, "MEAN_MOTION_DOT": 4.21e-05, "MEAN_MOTION_DDOT": 0}, "tle": {"line1": "1 35440U 93036AKJ 25342.37669406  .00004210  00000+0  70104-3 0  9995", "line2": "2 35440  74.0147 216.0804 0069124 357.9704   2.1175 14.68778885687019"}}, "geometry": {"type": "Point", "coordinates": [-154.08537495520375, -19.479520189879494]}}, {"type": "Feature", "properties": {"norad_id": 35441, "name": "COSMOS 2251 DEB", "group": "cosmos-2251-debris", "lat": -17.88261047503848, "lon": -63.127622711773334, "alt_km": 710.2076920534828, "timestamp": "2025-12-10T14:53:37.483854+00:00", "meta": {"OBJECT_NAME": "COSMOS 2251 DEB", "OBJECT_ID": "1993-036AKK", "EPOCH": "2025-12-08T15:22:12.064224", "MEAN_MOTION": 14.62488563, "ECCENTRICITY": 0.0037245, "INCLINATION": 74.1346, "RA_OF_ASC_NODE": 305.9066, "ARG_OF_PERICENTER": 204.2337, "MEAN_ANOMALY": 155.708, "EPHEMERIS_TYPE": 0, "CLASSIFICATION_TYPE": "U", "NORAD_CAT_ID": 35441, "ELEMENT_SET_NO": 999, "REV_AT_EPOCH": 87370, "BSTAR": 0.0024987, "MEAN_MOTION_DOT": 0.00012785, "MEAN_MOTION_DDOT": 0}, "tle": {"line1": "1 35441U 93036AKK 25342.64041741  .00012785  00000+0  24987-2 0  9995", "line2": "2 35441  74.1346 305.9066 0037245 204.2337 155.7080 14.62488563873703"}}, "geometry": {"type": "Point", "coordinates": [-63.127622711773334, -17.88261047503848]}}]}